OBJECT_NAME,OBJECT_ID,EPOCH,MEAN_MOTION,ECCENTRICITY,INCLINATION,RA_OF_ASC_NODE,ARG_OF_PERICENTER,MEAN_ANOMALY,EPHEMERIS_TYPE,CLASSIFICATION_TYPE,NORAD_CAT_ID,ELEMENT_SET_NO,REV_AT_EPOCH,BSTAR,MEAN_MOTION_DOT,MEAN_MOTION_DDOT
SAUDISAT 1C (SO-50),2002-058C,2026-06-16T01:49:59.161152,14.83044860,.0075289,64.5510,132.4221,262.6786,96.5759,0,U,27607,999,26429,.11773E-3,.851E-5,0
SAUDISAT 2,2004-025F,2026-06-15T23:58:00.817248,14.56683369,.0023635,98.5507,166.9498,302.0706,57.8196,0,U,28371,999,16557,.58286E-4,.211E-5,0
SAUDISAT 3,2007-012B,2026-06-15T19:56:07.436832,14.71424913,.00135657,98.1456,117.2304,228.4341,131.5703,0,U,31118,999,2754,.43012713E-4,.216E-5,0
PISAT,2016-059B,2026-06-15T23:39:54.339840,14.68981716,.0028288,97.8179,167.4904,206.7001,153.2750,0,U,41784,999,51956,.13186E-3,.73E-5,0
FLYING LAPTOP,2017-042G,2026-06-16T04:27:20.883168,15.01138064,.0019528,97.4679,322.7561,124.9089,235.3974,0,U,42831,999,48630,.16857E-3,.211E-4,0
SALSAT,2020-068K,2026-06-15T23:14:07.134432,15.29785415,.0008114,97.8844,169.9584,313.3675,46.6887,0,U,46495,999,31517,.23912E-3,.682E-4,0
